{
  "type": "FeatureCollection",
  "features": [
    {
      "type": "Feature",
      "properties": {
        "norad_id": 35901,
        "name": "COSMOS 2251 DEB",
        "group": "cosmos-2251-debris",
        "lat": 34.81225084765861,
        "lon": -157.64732946781805,
        "alt_km": 548.3857556428702,
        "timestamp": "2025-12-07T09:35:10.186033+00:00",
        "meta_object_name": "COSMOS 2251 DEB",
        "meta_object_id": "1993-036AUQ",
        "meta_epoch": "2025-12-06T12:33:18.280800",
        "meta_mean_motion": 15.061967,
        "meta_eccentricity": 0.00064559,
        "meta_inclination": 74.0121,
        "meta_ra_of_asc_node": 35.6525,
        "meta_arg_of_pericenter": 1.7582,
        "meta_mean_anomaly": 71.928,
        "meta_ephemeris_type": 0,
        "meta_classification_type": "U",
        "meta_norad_cat_id": 35901,
        "meta_element_set_no": 999,
        "meta_rev_at_epoch": 86033,
        "meta_bstar": 0.0058349557,
        "meta_mean_motion_dot": 0.00086578,
        "meta_mean_motion_ddot": 0,
        "tle_line1": "1 35901U 93036AUQ 25340.52312825  .00086578  00000+0  58350-2 0  9997",
        "tle_line2": "2 35901  74.0121  35.6525 0006455   1.7582  71.9280 15.06196700860336"
      },
      "geometry": {
        "type": "Point",
        "coordinates": [
          -157.64732946781805,
          34.81225084765861
        ]
      }
    },
    {
      "type": "Feature",
      "properties": {
        "norad_id": 35902,
        "name": "COSMOS 2251 DEB",
        "group": "cosmos-2251-debris",
        "lat": 16.792067448706852,
        "lon": 59.306502856424125,
        "alt_km": 872.0414351035988,
        "timestamp": "2025-12-07T09:35:10.186043+00:00",
        "meta_object_name": "COSMOS 2251 DEB",
        "meta_object_id": "1993-036AUR",
        "meta_epoch": "2025-12-01T03:04:00.207552",
        "meta_mean_motion": 14.26791124,
        "meta_eccentricity": 0.01016301,
        "meta_inclination": 73.9836,
        "meta_ra_of_asc_node": 255.6555,
        "meta_arg_of_pericenter": 12.6385,
        "meta_mean_anomaly": 347.7274,
        "meta_ephemeris_type": 0,
        "meta_classification_type": "U",
        "meta_norad_cat_id": 35902,
        "meta_element_set_no": 999,
        "meta_rev_at_epoch": 60964,
        "meta_bstar": 0.0014097892,
        "meta_mean_motion_dot": 3.584e-05,
        "meta_mean_motion_ddot": 0,
        "tle_line1": "1 35902U 93036AUR 25335.12778018  .00003584  00000+0  14098-2 0  9995",
        "tle_line2": "2 35902  73.9836 255.6555 0101630  12.6385 347.7274 14.26791124609642"
      },
      "geometry": {
        "type": "Point",
        "coordinates": [
          59.306502856424125,
          16.792067448706852
        ]
      }
    },
    {
      "type": "Feature",
      "properties": {
        "norad_id": 35905,
        "name": "COSMOS 2251 DEB",
        "group": "cosmos-2251-debris",
        "lat": 9.612774917183343,
        "lon": 38.87401327878136,
        "alt_km": 614.4294003535815,
        "timestamp": "2025-12-07T09:35:10.186052+00:00",
        "meta_object_name": "COSMOS 2251 DEB",
        "meta_object_id": "1993-036AUU",
        "meta_epoch": "2025-12-05T23:11:04.270560",
        "meta_mean_motion": 14.98876189,
        "meta_eccentricity": 0.0091036,
        "meta_inclination": 74.0321,
        "meta_ra_of_asc_node": 224.5617,
        "meta_arg_of_pericenter": 306.179,
        "meta_mean_anomaly": 53.1,
        "meta_ephemeris_type": 0,
        "meta_classification_type": "U",
        "meta_norad_cat_id": 35905,
        "meta_element_set_no": 999,
        "meta_rev_at_epoch": 88481,
        "meta_bstar": 0.00094619012,
        "meta_mean_motion_dot": 0.00012441,
        "meta_mean_motion_ddot": 0,
        "tle_line1": "1 35905U 93036AUU 25339.96602165  .00012441  00000+0  94619-3 0  9993",
        "tle_line2": "2 35905  74.0321 224.5617 0091036 306.1790  53.1000 14.98876189884812"
      },
      "geometry": {
        "type": "Point",
        "coordinates": [
          38.87401327878136,
          9.612774917183343
        ]
      }
    },
    {
      "type": "Feature",
      "properties": {
        "norad_id": 35959,
        "name": "COSMOS 2251 DEB",
        "group": "cosmos-2251-debris",
        "lat": 66.09964281679015,
        "lon": 101.59162390984083,
        "alt_km": 764.4349011985432,
        "timestamp": "2025-12-07T09:35:10.186063+00:00",
        "meta_object_name": "COSMOS 2251 DEB",
        "meta_object_id": "1993-036AUZ",
        "meta_epoch": "2025-12-06T16:20:41.150976",
        "meta_mean_motion": 14.34129168,
        "meta_eccentricity": 0.00213406,
        "meta_inclination": 74.0321,
        "meta_ra_of_asc_node": 323.1556,
        "meta_arg_of_pericenter": 45.4818,
        "meta_mean_anomaly": 314.8073,
        "meta_ephemeris_type": 0,
        "meta_classification_type": "U",
        "meta_norad_cat_id": 35959,
        "meta_element_set_no": 999,
        "meta_rev_at_epoch": 84841,
        "meta_bstar": 0.00022444322,
        "meta_mean_motion_dot": 6.04e-06,
        "meta_mean_motion_ddot": 0,
        "tle_line1": "1 35959U 93036AUZ 25340.68103184  .00000604  00000+0  22444-3 0  9995",
        "tle_line2": "2 35959  74.0321 323.1556 0021340  45.4818 314.8073 14.34129168848415"
      },
      "geometry": {
        "type": "Point",
        "coordinates": [
          101.59162390984083,
          66.09964281679015
        ]
      }
    },
    {
      "type": "Feature",
      "properties": {
        "norad_id": 35961,
        "name": "COSMOS 2251 DEB",
        "group": "cosmos-2251-debris",
        "lat": -50.51585954457397,
        "lon": 54.06045942976135,
        "alt_km": 867.3377094813268,
        "timestamp": "2025-12-07T09:35:10.186072+00:00",
        "meta_object_name": "COSMOS 2251 DEB",
        "meta_object_id": "1993-036AVB",
        "meta_epoch": "2025-11-29T09:08:47.173056",
        "meta_mean_motion": 14.05319505,
        "meta_eccentricity": 0.01924432,
        "meta_inclination": 73.9254,
        "meta_ra_of_asc_node": 227.671,
        "meta_arg_of_pericenter": 163.9834,
        "meta_mean_anomaly": 196.7506,
        "meta_ephemeris_type": 0,
        "meta_classification_type": "U",
        "meta_norad_cat_id": 35961,
        "meta_element_set_no": 999,
        "meta_rev_at_epoch": 62494,
        "meta_bstar": 0.00062484461,
        "meta_mean_motion_dot": 1.171e-05,
        "meta_mean_motion_ddot": 0,
        "tle_line1": "1 35961U 93036AVB 25333.38110154  .00001171  00000+0  62484-3 0  9990",
        "tle_line2": "2 35961  73.9254 227.6710 0192443 163.9834 196.7506 14.05319505624940"
      },
      "geometry": {
        "type": "Point",
        "coordinates": [
          54.06045942976135,
          -50.51585954457397
        ]
      }
    },
    {
      "type": "Feature",
      "properties": {
        "norad_id": 35979,
        "name": "COSMOS 2251 DEB",
        "group": "cosmos-2251-debris",
        "lat": -47.865832732214365,
        "lon": 87.3103923272525,
        "alt_km": 689.2756837985307,
        "timestamp": "2025-12-07T09:35:10.186082+00:00",
        "meta_object_name": "COSMOS 2251 DEB",
        "meta_object_id": "1993-036AVV",
        "meta_epoch": "2025-12-04T12:57:50.431392",
        "meta_mean_motion": 14.74469287,
        "meta_eccentricity": 0.0058708,
        "meta_inclination": 74.011,
        "meta_ra_of_asc_node": 254.4216,
        "meta_arg_of_pericenter": 28.4966,
        "meta_mean_anomaly": 150.8593,
        "meta_ephemeris_type": 0,
        "meta_classification_type": "U",
        "meta_norad_cat_id": 35979,
        "meta_element_set_no": 999,
        "meta_rev_at_epoch": 88512,
        "meta_bstar": 0.0024348,
        "meta_mean_motion_dot": 0.00016643,
        "meta_mean_motion_ddot": 0,
        "tle_line1": "1 35979U 93036AVV 25338.54016703  .00016643  00000+0  24348-2 0  9993",
        "tle_line2": "2 35979  74.0110 254.4216 0058708  28.4966 150.8593 14.74469287885122"
      },
      "geometry": {
        "type": "Point",
        "coordinates": [
          87.3103923272525,
          -47.865832732214365
        ]
      }
    },
    {
      "type": "Feature",
      "properties": {
        "norad_id": 35980,
        "name": "COSMOS 2251 DEB",
        "group": "cosmos-2251-debris",
        "lat": 41.78152726476726,
        "lon": 147.885972834949,
        "alt_km": 719.5449360014954,
        "timestamp": "2025-12-07T09:35:10.186093+00:00",
        "meta_object_name": "COSMOS 2251 DEB",
        "meta_object_id": "1993-036AVW",
        "meta_epoch": "2025-12-02T19:08:08.015136",
        "meta_mean_motion": 14.59062146,
        "meta_eccentricity": 0.00537712,
        "meta_inclination": 73.91,
        "meta_ra_of_asc_node": 141.7735,
        "meta_arg_of_pericenter": 277.5645,
        "meta_mean_anomaly": 81.9413,
        "meta_ephemeris_type": 0,
        "meta_classification_type": "U",
        "meta_norad_cat_id": 35980,
        "meta_element_set_no": 999,
        "meta_rev_at_epoch": 61341,
        "meta_bstar": 0.002036555,
        "meta_mean_motion_dot": 9.752e-05,
        "meta_mean_motion_ddot": 0,
        "tle_line1": "1 35980U 93036AVW 25336.79731499  .00009752  00000+0  20366-2 0  9995",
        "tle_line2": "2 35980  73.9100 141.7735 0053771 277.5645  81.9413 14.59062146613413"
      },
      "geometry": {
        "type": "Point",
        "coordinates": [
          147.885972834949,
          41.78152726476726
        ]
      }
    }
  ]
}